[Satellite]
VERSION=1.1
NAME=S-Net D
NICKNAME=S-Net D
TLE1=1 43186U 18014G   25178.69934531  .00002982  00000-0  17749-3 0  9991
TLE2=2 43186  97.5610  81.4217 0009704 152.9293 207.2445 15.11963958405119
STATUS=0
